OBJECT_NAME,OBJECT_ID,EPOCH,MEAN_MOTION,ECCENTRICITY,INCLINATION,RA_OF_ASC_NODE,ARG_OF_PERICENTER,MEAN_ANOMALY,EPHEMERIS_TYPE,CLASSIFICATION_TYPE,NORAD_CAT_ID,ELEMENT_SET_NO,REV_AT_EPOCH,BSTAR,MEAN_MOTION_DOT,MEAN_MOTION_DDOT
BADR-5,2010-025A,2026-07-23T06:17:12.404832,1.00269047,.0005334,0.0371,133.0101,58.4229,234.3564,0,U,36592,999,5357,0,.158E-5,0
COMS 1,2010-032A,2026-07-23T06:59:29.135616,0.99166005,.00115285,4.8953,74.9198,15.4090,245.4264,0,U,36744,999,5144,0,-.138E-5,0
ARABSAT-5A,2010-032B,2026-07-23T06:17:12.404832,1.00271198,.00053654,0.1298,69.6169,57.8317,298.3276,0,U,36745,999,5900,0,.158E-5,0
ECHOSTAR 15,2010-034A,2026-07-22T23:37:38.651232,1.00274335,.00020491,0.0228,307.6476,160.5936,68.1145,0,U,36792,999,5868,0,.3E-7,0
BEIDOU-2 IGSO-1,2010-036A,2026-07-22T20:02:21.598944,1.00261993,.00590598,54.3079,162.6381,225.2794,320.0279,0,U,36828,999,5845,0,-.9E-6,0
NILESAT 201,2010-037A,2026-07-23T06:06:28.433664,1.00271486,.00051624,0.0334,202.0908,293.8927,249.6155,0,U,36830,999,5873,0,-.53E-6,0
RASCOM-QAF 1R,2010-037B,2026-07-23T06:09:13.170816,1.00272257,.00060302,0.0219,85.8434,26.3081,284.0357,0,U,36831,999,5866,0,.23E-6,0
AEHF-1 (USA 214),2010-039A,2026-07-23T06:17:04.917408,1.00279578,.00040299,8.3075,67.5763,38.6778,319.1183,0,U,36868,999,5401,0,.145E-5,0
XM-5,2010-053A,2026-07-23T07:49:18.079680,1.00271189,.00013272,0.0616,262.9774,309.4997,90.7012,0,U,37185,999,5784,0,-.18E-6,0
BSAT-3B,2010-056B,2026-07-23T06:39:40.250880,1.00270327,.00029784,0.0558,240.9159,295.5439,334.2995,0,U,37207,999,5246,0,-.345E-5,0
BEIDOU-2 G4,2010-057A,2026-07-23T08:18:30.760704,1.00273299,.00052481,3.7347,68.7195,183.0899,333.8521,0,U,37210,999,5765,0,-.111E-5,0
SKYTERRA 1,2010-061A,2026-07-23T07:37:05.546784,1.00276450,.0002818,5.1999,50.7892,27.5999,235.6191,0,U,37218,999,5755,0,-.118E-5,0
HYLAS 1,2010-065A,2026-07-23T00:20:12.737184,1.00645786,.00012168,5.7316,72.5747,133.3368,142.7165,0,U,37237,999,724,0,.1E-5,0
INTELSAT 17 (IS-17),2010-065B,2026-07-23T03:01:58.984032,1.00272272,.00023963,0.0172,101.0219,20.7888,290.5478,0,U,37238,999,5360,0,.3E-7,0
BEIDOU-2 IGSO-2,2010-068A,2026-07-21T21:04:35.859648,1.00271863,.00570454,47.4828,271.3972,214.5351,238.1175,0,U,37256,999,5714,0,-.198E-5,0
EUTELSAT KA-SAT 9A,2010-069A,2026-07-23T06:10:58.003392,1.00269411,.0004726,0.0680,340.1857,167.4079,255.1437,0,U,37258,999,4436,0,.66E-6,0
HISPASAT 30W-5,2010-070A,2026-07-23T05:59:51.568224,1.00275104,.00057925,0.0233,155.4972,338.1506,227.3037,0,U,37264,999,5354,0,-.211E-5,0
KOREASAT 6,2010-070B,2026-07-23T03:28:48.910656,1.00273018,.00029502,0.0148,310.0213,179.0477,23.9114,0,U,37265,999,5713,0,-.107E-5,0
BEIDOU-2 IGSO-3,2011-013A,2026-07-21T11:51:52.944192,1.00259347,.00358813,62.4558,39.8259,183.5212,359.9880,0,U,37384,999,5600,0,-.172E-5,0
INTELSAT 28 (IS-28),2011-016A,2026-07-23T05:59:21.615072,1.00271117,.00040277,1.8967,82.1851,44.0862,232.8386,0,U,37392,999,5364,0,-.222E-5,0
YAHSAT 1A,2011-016B,2026-07-23T06:23:04.343136,1.00269881,.00034746,0.0157,77.7896,36.7565,334.7064,0,U,37393,999,4277,0,.106E-5,0
SBIRS GEO-1 (USA 230),2011-019A,2026-07-23T02:57:59.366592,1.00272470,.00018734,4.6132,53.0874,62.9581,281.1155,0,U,37481,999,5575,0,.1E-5,0
TELSTAR 14R,2011-021A,2026-07-23T06:48:26.000928,0.98982105,.00079581,0.1037,85.0263,294.5132,282.5873,0,U,37602,999,5619,0,.29E-6,0
GSAT-8,2011-022A,2026-07-23T02:58:51.782880,1.00272344,.00025321,2.2212,81.3863,149.9343,169.3306,0,U,37605,999,5357,0,.87E-6,0
ST-2,2011-022B,2026-07-23T03:42:38.687616,1.00270723,.00015495,0.0171,55.2326,76.4466,312.8775,0,U,37606,999,5563,0,0,0
ZHONGXING-10,2011-026A,2026-07-23T03:42:38.687616,1.00273093,.00036761,1.1378,83.7989,22.0531,336.2184,0,U,37677,999,5535,0,-.185E-5,0
SES-3,2011-035A,2026-07-23T06:47:39.014880,1.00272145,.00022872,1.4172,82.6901,38.7892,178.4616,0,U,37748,999,5495,0,-.99E-6,0
KAZSAT-2,2011-035B,2026-07-23T03:42:38.687616,1.00271483,.00022303,0.0230,112.2055,55.9535,274.9134,0,U,37749,999,5375,0,-.193E-5,0
BEIDOU-2 IGSO-4,2011-038A,2026-07-22T23:49:25.548384,1.00278691,.0160072,54.6048,165.3543,231.4898,355.6942,0,U,37763,999,5500,0,-.35E-6,0
ASTRA 1N,2011-041A,2026-07-23T06:13:57.716256,1.00274057,.0006083,0.0673,25.7179,92.2663,295.6864,0,U,37775,999,4488,0,.124E-5,0
BSAT-3C (JCSAT-110R),2011-041B,2026-07-23T06:39:40.250880,1.00270548,.00003585,0.0430,290.5868,241.1556,339.1338,0,U,37776,999,5083,0,-.346E-5,0
PAKSAT-1R,2011-042A,2026-07-23T02:53:59.750016,1.00273436,.00032231,0.7794,84.2594,357.3285,300.7254,0,U,37779,999,5483,0,.157E-5,0
